[{"OBJECT_NAME":"STARLINK-3107","OBJECT_ID":"2021-082AT","EPOCH":"2026-03-09T21:59:27.140640","MEAN_MOTION":15.10504087,"ECCENTRICITY":0.00073375,"INCLINATION":69.9932,"RA_OF_ASC_NODE":287.3824,"ARG_OF_PERICENTER":250.2407,"MEAN_ANOMALY":109.7967,"EPHEMERIS_TYPE":0,"CLASSIFICATION_TYPE":"U","NORAD_CAT_ID":49171,"ELEMENT_SET_NO":999,"REV_AT_EPOCH":24733,"BSTAR":0.001517345,"MEAN_MOTION_DOT":0.00025048,"MEAN_MOTION_DDOT":0},{"OBJECT_NAME":"STARLINK-3363","OBJECT_ID":"2022-005AH","EPOCH":"2026-03-09T21:59:19.786272","MEAN_MOTION":15.08825601,"ECCENTRICITY":0.0001195,"INCLINATION":53.2172,"RA_OF_ASC_NODE":298.0002,"ARG_OF_PERICENTER":92.415,"MEAN_ANOMALY":267.6979,"EPHEMERIS_TYPE":0,"CLASSIFICATION_TYPE":"U","NORAD_CAT_ID":51135,"ELEMENT_SET_NO":999,"REV_AT_EPOCH":22876,"BSTAR":-6.435096e-6,"MEAN_MOTION_DOT":-3.9e-6,"MEAN_MOTION_DDOT":0}]
